CCSDS_OMM_VERS = 2.0
CREATION_DATE  = 
ORIGINATOR     = 

OBJECT_NAME    = STARLINK-35483
OBJECT_ID      = 2025-245U
CENTER_NAME    = EARTH
REF_FRAME      = TEME
TIME_SYSTEM    = UTC
MEAN_ELEMENT_THEORY = SGP/SGP4

EPOCH          = 2025-11-07T20:00:03.000384
MEAN_MOTION    = 15.89725938
ECCENTRICITY   = .0000874
INCLINATION    = 53.1525
RA_OF_ASC_NODE = 137.2552
ARG_OF_PERICENTER = 64.3086
MEAN_ANOMALY   = 59.5111

EPHEMERIS_TYPE = 0
CLASSIFICATION_TYPE = U
NORAD_CAT_ID   = 66252
ELEMENT_SET_NO = 999
REV_AT_EPOCH   = 244
BSTAR          = -.4625E-2
MEAN_MOTION_DOT = -.124517E-1
MEAN_MOTION_DDOT = 0

CCSDS_OMM_VERS = 2.0
CREATION_DATE  = 
ORIGINATOR     = 

OBJECT_NAME    = STARLINK-35486
OBJECT_ID      = 2025-245V
CENTER_NAME    = EARTH
REF_FRAME      = TEME
TIME_SYSTEM    = UTC
MEAN_ELEMENT_THEORY = SGP/SGP4

EPOCH          = 2025-11-07T20:00:03.000384
MEAN_MOTION    = 15.89769303
ECCENTRICITY   = .0000774
INCLINATION    = 53.1527
RA_OF_ASC_NODE = 137.2516
ARG_OF_PERICENTER = 67.8224
MEAN_ANOMALY   = 58.0649

EPHEMERIS_TYPE = 0
CLASSIFICATION_TYPE = U
NORAD_CAT_ID   = 66253
ELEMENT_SET_NO = 999
REV_AT_EPOCH   = 228
BSTAR          = -.46658E-2
MEAN_MOTION_DOT = -.1257344E-1
MEAN_MOTION_DDOT = 0

CCSDS_OMM_VERS = 2.0
CREATION_DATE  = 
ORIGINATOR     = 

OBJECT_NAME    = STARLINK-35488
OBJECT_ID      = 2025-245W
CENTER_NAME    = EARTH
REF_FRAME      = TEME
TIME_SYSTEM    = UTC
MEAN_ELEMENT_THEORY = SGP/SGP4

EPOCH          = 2025-11-07T20:00:03.000384
MEAN_MOTION    = 15.89814661
ECCENTRICITY   = .0000805
INCLINATION    = 53.1524
RA_OF_ASC_NODE = 137.2460
ARG_OF_PERICENTER = 62.4967
MEAN_ANOMALY   = 65.7364

EPHEMERIS_TYPE = 0
CLASSIFICATION_TYPE = U
NORAD_CAT_ID   = 66254
ELEMENT_SET_NO = 999
REV_AT_EPOCH   = 249
BSTAR          = -.47403E-2
MEAN_MOTION_DOT = -.1277759E-1
MEAN_MOTION_DDOT = 0

CCSDS_OMM_VERS = 2.0
CREATION_DATE  = 
ORIGINATOR     = 

OBJECT_NAME    = STARLINK-35616
OBJECT_ID      = 2025-245X
CENTER_NAME    = EARTH
REF_FRAME      = TEME
TIME_SYSTEM    = UTC
MEAN_ELEMENT_THEORY = SGP/SGP4

EPOCH          = 2025-11-07T20:00:03.000384
MEAN_MOTION    = 15.89868904
ECCENTRICITY   = .0000634
INCLINATION    = 53.1525
RA_OF_ASC_NODE = 137.2417
ARG_OF_PERICENTER = 66.8729
MEAN_ANOMALY   = 63.5038

EPHEMERIS_TYPE = 0
CLASSIFICATION_TYPE = U
NORAD_CAT_ID   = 66255
ELEMENT_SET_NO = 999
REV_AT_EPOCH   = 249
BSTAR          = -.48651E-2
MEAN_MOTION_DOT = -.1310569E-1
MEAN_MOTION_DDOT = 0

CCSDS_OMM_VERS = 2.0
CREATION_DATE  = 
ORIGINATOR     = 

OBJECT_NAME    = STARLINK-35619
OBJECT_ID      = 2025-245Y
CENTER_NAME    = EARTH
REF_FRAME      = TEME
TIME_SYSTEM    = UTC
MEAN_ELEMENT_THEORY = SGP/SGP4

EPOCH          = 2025-11-07T20:00:03.000384
MEAN_MOTION    = 15.89982964
ECCENTRICITY   = .0001105
INCLINATION    = 53.1524
RA_OF_ASC_NODE = 137.2286
ARG_OF_PERICENTER = 57.5931
MEAN_ANOMALY   = 79.0709

EPHEMERIS_TYPE = 0
CLASSIFICATION_TYPE = U
NORAD_CAT_ID   = 66256
ELEMENT_SET_NO = 999
REV_AT_EPOCH   = 249
BSTAR          = -.49871E-2
MEAN_MOTION_DOT = -.1346709E-1
MEAN_MOTION_DDOT = 0

CCSDS_OMM_VERS = 2.0
CREATION_DATE  = 
ORIGINATOR     = 

OBJECT_NAME    = STARLINK-35615
OBJECT_ID      = 2025-245Z
CENTER_NAME    = EARTH
REF_FRAME      = TEME
TIME_SYSTEM    = UTC
MEAN_ELEMENT_THEORY = SGP/SGP4

EPOCH          = 2025-11-07T20:00:03.000384
MEAN_MOTION    = 15.89950265
ECCENTRICITY   = .0000897
INCLINATION    = 53.1525
RA_OF_ASC_NODE = 137.2330
ARG_OF_PERICENTER = 65.7400
MEAN_ANOMALY   = 68.8892

EPHEMERIS_TYPE = 0
CLASSIFICATION_TYPE = U
NORAD_CAT_ID   = 66257
ELEMENT_SET_NO = 999
REV_AT_EPOCH   = 249
BSTAR          = -.49841E-2
MEAN_MOTION_DOT = -.1343859E-1
MEAN_MOTION_DDOT = 0

CCSDS_OMM_VERS = 2.0
CREATION_DATE  = 
ORIGINATOR     = 

OBJECT_NAME    = STARLINK-34650
OBJECT_ID      = 2025-245AA
CENTER_NAME    = EARTH
REF_FRAME      = TEME
TIME_SYSTEM    = UTC
MEAN_ELEMENT_THEORY = SGP/SGP4

EPOCH          = 2025-11-07T20:00:03.000384
MEAN_MOTION    = 15.89924983
ECCENTRICITY   = .000093
INCLINATION    = 53.1524
RA_OF_ASC_NODE = 137.2381
ARG_OF_PERICENTER = 62.7828
MEAN_ANOMALY   = 69.3693

EPHEMERIS_TYPE = 0
CLASSIFICATION_TYPE = U
NORAD_CAT_ID   = 66258
ELEMENT_SET_NO = 999
REV_AT_EPOCH   = 249
BSTAR          = -.50094E-2
MEAN_MOTION_DOT = -.1348314E-1
MEAN_MOTION_DDOT = 0

CCSDS_OMM_VERS = 2.0
CREATION_DATE  = 
ORIGINATOR     = 

OBJECT_NAME    = STARLINK-35529
OBJECT_ID      = 2025-245AB
CENTER_NAME    = EARTH
REF_FRAME      = TEME
TIME_SYSTEM    = UTC
MEAN_ELEMENT_THEORY = SGP/SGP4

EPOCH          = 2025-11-07T20:00:03.000384
MEAN_MOTION    = 15.90049307
ECCENTRICITY   = .0000904
INCLINATION    = 53.1525
RA_OF_ASC_NODE = 137.2200
ARG_OF_PERICENTER = 60.7676
MEAN_ANOMALY   = 80.0234

EPHEMERIS_TYPE = 0
CLASSIFICATION_TYPE = U
NORAD_CAT_ID   = 66259
ELEMENT_SET_NO = 999
REV_AT_EPOCH   = 249
BSTAR          = -.50013E-2
MEAN_MOTION_DOT = -.1353971E-1
MEAN_MOTION_DDOT = 0

CCSDS_OMM_VERS = 2.0
CREATION_DATE  = 
ORIGINATOR     = 

OBJECT_NAME    = STARLINK-35420
OBJECT_ID      = 2025-245AC
CENTER_NAME    = EARTH
REF_FRAME      = TEME
TIME_SYSTEM    = UTC
MEAN_ELEMENT_THEORY = SGP/SGP4

EPOCH          = 2025-11-07T20:00:03.000384
MEAN_MOTION    = 15.90019928
ECCENTRICITY   = .0000772
INCLINATION    = 53.1525
RA_OF_ASC_NODE = 137.2243
ARG_OF_PERICENTER = 61.9649
MEAN_ANOMALY   = 76.7185

EPHEMERIS_TYPE = 0
CLASSIFICATION_TYPE = U
NORAD_CAT_ID   = 66260
ELEMENT_SET_NO = 999
REV_AT_EPOCH   = 249
BSTAR          = -.50129E-2
MEAN_MOTION_DOT = -.1354841E-1
MEAN_MOTION_DDOT = 0

CCSDS_OMM_VERS = 2.0
CREATION_DATE  = 
ORIGINATOR     = 

OBJECT_NAME    = STARLINK-35536
OBJECT_ID      = 2025-245AD
CENTER_NAME    = EARTH
REF_FRAME      = TEME
TIME_SYSTEM    = UTC
MEAN_ELEMENT_THEORY = SGP/SGP4

EPOCH          = 2025-11-07T20:00:03.000384
MEAN_MOTION    = 15.90083977
ECCENTRICITY   = .00009
INCLINATION    = 53.1525
RA_OF_ASC_NODE = 137.2145
ARG_OF_PERICENTER = 63.0224
MEAN_ANOMALY   = 80.4603

EPHEMERIS_TYPE = 0
CLASSIFICATION_TYPE = U
NORAD_CAT_ID   = 66261
ELEMENT_SET_NO = 999
REV_AT_EPOCH   = 249
BSTAR          = -.50529E-2
MEAN_MOTION_DOT = -.1368352E-1
MEAN_MOTION_DDOT = 0

CCSDS_OMM_VERS = 2.0
CREATION_DATE  = 
ORIGINATOR     = 

OBJECT_NAME    = STARLINK-35487
OBJECT_ID      = 2025-245AE
CENTER_NAME    = EARTH
REF_FRAME      = TEME
TIME_SYSTEM    = UTC
MEAN_ELEMENT_THEORY = SGP/SGP4

EPOCH          = 2025-11-07T20:00:03.000384
MEAN_MOTION    = 15.90115049
ECCENTRICITY   = .0001146
INCLINATION    = 53.1525
RA_OF_ASC_NODE = 137.2096
ARG_OF_PERICENTER = 57.0621
MEAN_ANOMALY   = 88.6082

EPHEMERIS_TYPE = 0
CLASSIFICATION_TYPE = U
NORAD_CAT_ID   = 66262
ELEMENT_SET_NO = 999
REV_AT_EPOCH   = 244
BSTAR          = -.50621E-2
MEAN_MOTION_DOT = -.1372643E-1
MEAN_MOTION_DDOT = 0

CCSDS_OMM_VERS = 2.0
CREATION_DATE  = 
ORIGINATOR     = 

OBJECT_NAME    = SHENZHOU-21 (SZ-21)
OBJECT_ID      = 2025-246A
CENTER_NAME    = EARTH
REF_FRAME      = TEME
TIME_SYSTEM    = UTC
MEAN_ELEMENT_THEORY = SGP/SGP4

EPOCH          = 2025-11-07T00:57:48.018240
MEAN_MOTION    = 15.60556280
ECCENTRICITY   = .00056991
INCLINATION    = 41.4666
RA_OF_ASC_NODE = 233.4859
ARG_OF_PERICENTER = 336.2635
MEAN_ANOMALY   = 23.7940

EPHEMERIS_TYPE = 0
CLASSIFICATION_TYPE = U
NORAD_CAT_ID   = 66263
ELEMENT_SET_NO = 999
REV_AT_EPOCH   = 25813
BSTAR          = .38997351E-3
MEAN_MOTION_DOT = .32955E-3
MEAN_MOTION_DDOT = 0

