STARLINK-35483          
1 66252U 25245U   25311.83336806 -.01245170  00000+0 -46250-2 0  9998
2 66252  53.1525 137.2552 0000874  64.3086  59.5111 15.89725938  2444
STARLINK-35486          
1 66253U 25245V   25311.83336806 -.01257344  00000+0 -46658-2 0  9997
2 66253  53.1527 137.2516 0000774  67.8224  58.0649 15.89769303  2284
STARLINK-35488          
1 66254U 25245W   25311.83336806 -.01277759  00000+0 -47403-2 0  9999
2 66254  53.1524 137.2460 0000805  62.4967  65.7364 15.89814661  2490
STARLINK-35616          
1 66255U 25245X   25311.83336806 -.01310569  00000+0 -48651-2 0  9993
2 66255  53.1525 137.2417 0000634  66.8729  63.5038 15.89868904  2491
STARLINK-35619          
1 66256U 25245Y   25311.83336806 -.01346709  00000+0 -49871-2 0  9994
2 66256  53.1524 137.2286 0001105  57.5931  79.0709 15.89982964  2491
STARLINK-35615          
1 66257U 25245Z   25311.83336806 -.01343859  00000+0 -49841-2 0  9995
2 66257  53.1525 137.2330 0000897  65.7400  68.8892 15.89950265  2490
STARLINK-34650          
1 66258U 25245AA  25311.83336806 -.01348314  00000+0 -50094-2 0  9999
2 66258  53.1524 137.2381 0000930  62.7828  69.3693 15.89924983  2498
STARLINK-35529          
1 66259U 25245AB  25311.83336806 -.01353971  00000+0 -50013-2 0  9996
2 66259  53.1525 137.2200 0000904  60.7676  80.0234 15.90049307  2491
STARLINK-35420          
1 66260U 25245AC  25311.83336806 -.01354841  00000+0 -50129-2 0  9993
2 66260  53.1525 137.2243 0000772  61.9649  76.7185 15.90019928  2499
STARLINK-35536          
1 66261U 25245AD  25311.83336806 -.01368352  00000+0 -50529-2 0  9990
2 66261  53.1525 137.2145 0000900  63.0224  80.4603 15.90083977  2498
STARLINK-35487          
1 66262U 25245AE  25311.83336806 -.01372643  00000+0 -50621-2 0  9992
2 66262  53.1525 137.2096 0001146  57.0621  88.6082 15.90115049  2443
SHENZHOU-21 (SZ-21)     
1 66263U 25246A   25311.04013910  .00032955  00000+0  38997-3 0  9994
2 66263  41.4666 233.4859 0005699 336.2635  23.7940 15.60556280258135
